{
  "type": "FeatureCollection",
  "features": [
    {
      "type": "Feature",
      "properties": {
        "norad_id": 35440,
        "name": "COSMOS 2251 DEB",
        "group": "cosmos-2251-debris",
        "lat": -72.86671753836967,
        "lon": 112.1717203925875,
        "alt_km": 682.5120052626798,
        "timestamp": "2025-12-04T09:47:37.915814+00:00",
        "meta_object_name": "COSMOS 2251 DEB",
        "meta_object_id": "1993-036AKJ",
        "meta_epoch": "2025-12-01T23:22:39.601344",
        "meta_mean_motion": 14.68713507,
        "meta_eccentricity": 0.00688977,
        "meta_inclination": 74.0163,
        "meta_ra_of_asc_node": 228.485,
        "meta_arg_of_pericenter": 11.896,
        "meta_mean_anomaly": 348.3817,
        "meta_ephemeris_type": 0,
        "meta_classification_type": "U",
        "meta_norad_cat_id": 35440,
        "meta_element_set_no": 999,
        "meta_rev_at_epoch": 68607,
        "meta_bstar": 0.0006228083,
        "meta_mean_motion_dot": 3.729e-05,
        "meta_mean_motion_ddot": 0,
        "tle_line1": "1 35440U 93036AKJ 25335.97406946  .00003729  00000+0  62281-3 0  9992",
        "tle_line2": "2 35440  74.0163 228.4850 0068897  11.8960 348.3817 14.68713507686074"
      },
      "geometry": {
        "type": "Point",
        "coordinates": [
          112.1717203925875,
          -72.86671753836967
        ]
      }
    },
    {
      "type": "Feature",
      "properties": {
        "norad_id": 35441,
        "name": "COSMOS 2251 DEB",
        "group": "cosmos-2251-debris",
        "lat": 44.4531519125514,
        "lon": -29.829426200732794,
        "alt_km": 707.3403057300111,
        "timestamp": "2025-12-04T09:47:37.915825+00:00",
        "meta_object_name": "COSMOS 2251 DEB",
        "meta_object_id": "1993-036AKK",
        "meta_epoch": "2025-12-02T14:53:24.205920",
        "meta_mean_motion": 14.6231334,
        "meta_eccentricity": 0.00376111,
        "meta_inclination": 74.1347,
        "meta_ra_of_asc_node": 317.3711,
        "meta_arg_of_pericenter": 217.6417,
        "meta_mean_anomaly": 142.2119,
        "meta_ephemeris_type": 0,
        "meta_classification_type": "U",
        "meta_norad_cat_id": 35441,
        "meta_element_set_no": 999,
        "meta_rev_at_epoch": 87282,
        "meta_bstar": 0.002198223,
        "meta_mean_motion_dot": 0.000112,
        "meta_mean_motion_ddot": 0,
        "tle_line1": "1 35441U 93036AKK 25336.62041905  .00011200  00000+0  21982-2 0  9991",
        "tle_line2": "2 35441  74.1347 317.3711 0037611 217.6417 142.2119 14.62313340872828"
      },
      "geometry": {
        "type": "Point",
        "coordinates": [
          -29.829426200732794,
          44.4531519125514
        ]
      }
    },
    {
      "type": "Feature",
      "properties": {
        "norad_id": 35442,
        "name": "COSMOS 2251 DEB",
        "group": "cosmos-2251-debris",
        "lat": -0.944049880643815,
        "lon": 115.39506280876724,
        "alt_km": 621.9583462408436,
        "timestamp": "2025-12-04T09:47:37.915835+00:00",
        "meta_object_name": "COSMOS 2251 DEB",
        "meta_object_id": "1993-036AKL",
        "meta_epoch": "2025-12-03T15:59:55.163616",
        "meta_mean_motion": 14.83772489,
        "meta_eccentricity": 0.00044741,
        "meta_inclination": 74.0258,
        "meta_ra_of_asc_node": 117.135,
        "meta_arg_of_pericenter": 128.1598,
        "meta_mean_anomaly": 231.9984,
        "meta_ephemeris_type": 0,
        "meta_classification_type": "U",
        "meta_norad_cat_id": 35442,
        "meta_element_set_no": 999,
        "meta_rev_at_epoch": 87218,
        "meta_bstar": 0.004565269,
        "meta_mean_motion_dot": 0.00037992,
        "meta_mean_motion_ddot": 0,
        "tle_line1": "1 35442U 93036AKL 25337.66661069  .00037992  00000+0  45653-2 0  9993",
        "tle_line2": "2 35442  74.0258 117.1350 0004474 128.1598 231.9984 14.83772489872182"
      },
      "geometry": {
        "type": "Point",
        "coordinates": [
          115.39506280876724,
          -0.944049880643815
        ]
      }
    },
    {
      "type": "Feature",
      "properties": {
        "norad_id": 35443,
        "name": "COSMOS 2251 DEB",
        "group": "cosmos-2251-debris",
        "lat": 29.738579365449766,
        "lon": -2.0759091668646548,
        "alt_km": 588.972154546952,
        "timestamp": "2025-12-04T09:47:37.915845+00:00",
        "meta_object_name": "COSMOS 2251 DEB",
        "meta_object_id": "1993-036AKM",
        "meta_epoch": "2025-12-03T11:10:41.919744",
        "meta_mean_motion": 14.95510344,
        "meta_eccentricity": 0.0073868,
        "meta_inclination": 73.9866,
        "meta_ra_of_asc_node": 350.3879,
        "meta_arg_of_pericenter": 135.256,
        "meta_mean_anomaly": 225.4616,
        "meta_ephemeris_type": 0,
        "meta_classification_type": "U",
        "meta_norad_cat_id": 35443,
        "meta_element_set_no": 999,
        "meta_rev_at_epoch": 86739,
        "meta_bstar": 0.0041144703,
        "meta_mean_motion_dot": 0.00048434,
        "meta_mean_motion_ddot": 0,
        "tle_line1": "1 35443U 93036AKM 25337.46576296  .00048434  00000+0  41145-2 0  9994",
        "tle_line2": "2 35443  73.9866 350.3879 0073868 135.2560 225.4616 14.95510344867394"
      },
      "geometry": {
        "type": "Point",
        "coordinates": [
          -2.0759091668646548,
          29.738579365449766
        ]
      }
    },
    {
      "type": "Feature",
      "properties": {
        "norad_id": 35445,
        "name": "COSMOS 2251 DEB",
        "group": "cosmos-2251-debris",
        "lat": 70.31828890820734,
        "lon": 82.7267332387222,
        "alt_km": 633.0016643905319,
        "timestamp": "2025-12-04T09:47:37.915855+00:00",
        "meta_object_name": "COSMOS 2251 DEB",
        "meta_object_id": "1993-036AKP",
        "meta_epoch": "2025-12-01T05:37:58.814400",
        "meta_mean_motion": 14.58784895,
        "meta_eccentricity": 0.0143608,
        "meta_inclination": 74.0353,
        "meta_ra_of_asc_node": 321.9314,
        "meta_arg_of_pericenter": 51.7494,
        "meta_mean_anomaly": 309.6492,
        "meta_ephemeris_type": 0,
        "meta_classification_type": "U",
        "meta_norad_cat_id": 35445,
        "meta_element_set_no": 999,
        "meta_rev_at_epoch": 87161,
        "meta_bstar": 0.0018521,
        "meta_mean_motion_dot": 9.974e-05,
        "meta_mean_motion_ddot": 0,
        "tle_line1": "1 35445U 93036AKP 25335.23470850  .00009974  00000+0  18521-2 0  9996",
        "tle_line2": "2 35445  74.0353 321.9314 0143608  51.7494 309.6492 14.58784895871615"
      },
      "geometry": {
        "type": "Point",
        "coordinates": [
          82.7267332387222,
          70.31828890820734
        ]
      }
    },
    {
      "type": "Feature",
      "properties": {
        "norad_id": 35446,
        "name": "COSMOS 2251 DEB",
        "group": "cosmos-2251-debris",
        "lat": -73.9315154675693,
        "lon": -122.79305581361386,
        "alt_km": 770.0023519368042,
        "timestamp": "2025-12-04T09:47:37.915865+00:00",
        "meta_object_name": "COSMOS 2251 DEB",
        "meta_object_id": "1993-036AKQ",
        "meta_epoch": "2025-11-30T07:11:01.736160",
        "meta_mean_motion": 14.5460995,
        "meta_eccentricity": 0.00744354,
        "meta_inclination": 74.0466,
        "meta_ra_of_asc_node": 341.7043,
        "meta_arg_of_pericenter": 103.5149,
        "meta_mean_anomaly": 257.4321,
        "meta_ephemeris_type": 0,
        "meta_classification_type": "U",
        "meta_norad_cat_id": 35446,
        "meta_element_set_no": 999,
        "meta_rev_at_epoch": 87827,
        "meta_bstar": 0.00010353473,
        "meta_mean_motion_dot": 4.29e-06,
        "meta_mean_motion_ddot": 0,
        "tle_line1": "1 35446U 93036AKQ 25334.29932565  .00000429  00000+0  10353-3 0  9990",
        "tle_line2": "2 35446  74.0466 341.7043 0074435 103.5149 257.4321 14.54609950878278"
      },
      "geometry": {
        "type": "Point",
        "coordinates": [
          -122.79305581361386,
          -73.9315154675693
        ]
      }
    },
    {
      "type": "Feature",
      "properties": {
        "norad_id": 35448,
        "name": "COSMOS 2251 DEB",
        "group": "cosmos-2251-debris",
        "lat": 38.96744162679318,
        "lon": -88.11782406069823,
        "alt_km": 715.2437741846106,
        "timestamp": "2025-12-04T09:47:37.915875+00:00",
        "meta_object_name": "COSMOS 2251 DEB",
        "meta_object_id": "1993-036AKS",
        "meta_epoch": "2025-11-30T02:46:57.396576",
        "meta_mean_motion": 14.54072836,
        "meta_eccentricity": 0.00108374,
        "meta_inclination": 73.9021,
        "meta_ra_of_asc_node": 113.5661,
        "meta_arg_of_pericenter": 293.2846,
        "meta_mean_anomaly": 66.7175,
        "meta_ephemeris_type": 0,
        "meta_classification_type": "U",
        "meta_norad_cat_id": 35448,
        "meta_element_set_no": 999,
        "meta_rev_at_epoch": 87151,
        "meta_bstar": 0.0011243379,
        "meta_mean_motion_dot": 4.725e-05,
        "meta_mean_motion_ddot": 0,
        "tle_line1": "1 35448U 93036AKS 25334.11594209  .00004725  00000+0  11243-2 0  9993",
        "tle_line2": "2 35448  73.9021 113.5661 0010837 293.2846  66.7175 14.54072836871518"
      },
      "geometry": {
        "type": "Point",
        "coordinates": [
          -88.11782406069823,
          38.96744162679318
        ]
      }
    }
  ]
}